COMMENT,ORIGINATOR,NORAD_CAT_ID,OBJECT_NAME,OBJECT_TYPE,CLASSIFICATION_TYPE,INTLDES,EPOCH,EPOCH_MICROSECONDS,MEAN_MOTION,ECCENTRICITY,INCLINATION,RA_OF_ASC_NODE,ARG_OF_PERICENTER,MEAN_ANOMALY,EPHEMERIS_TYPE,ELEMENT_SET_NO,REV_AT_EPOCH,BSTAR,MEAN_MOTION_DOT,MEAN_MOTION_DDOT,FILE,TLE_LINE0,TLE_LINE1,TLE_LINE2,OBJECT_ID,OBJECT_NUMBER,SEMIMAJOR_AXIS,PERIOD,APOGEE,PERIGEE,DECAYED
GENERATED VIA SPACETRACK.ORG API,18 SPCS,38778,ASTRA 2F,PAYLOAD,U,12051A,2024-11-10 13:55:30,900864,1.00272495,0.0004538,0.0373,247.3669,344.3599,55.6062,0,999,3528,0,1.59e-06,0,4549736,0 ASTRA 2F,1 38778U 12051A   24315.58021876  .00000159  00000-0  00000-0 0  9999,2 38778   0.0373 247.3669 0004538 344.3599  55.6062  1.00272495 35284,2012-051A,38778,42164.533,1436.087,35805.532,35767.264,0
GENERATED VIA SPACETRACK.ORG API,18 SPCS,38778,ASTRA 2F,PAYLOAD,U,12051A,2024-11-10 21:41:42,704736,1.00272632,0.0004556,0.0365,247.1419,344.9771,172.0836,0,999,3528,0,1.59e-06,0,4550087,0 ASTRA 2F,1 38778U 12051A   24315.90396649  .00000159  00000-0  00000-0 0  9998,2 38778   0.0365 247.1419 0004556 344.9771 172.0836  1.00272632 35280,2012-051A,38778,42164.495,1436.085,35805.57,35767.149,0
GENERATED VIA SPACETRACK.ORG API,18 SPCS,38778,ASTRA 2F,PAYLOAD,U,12051A,2024-11-11 12:13:24,915360,1.00272846,0.000459,0.035,246.3092,346.785,29.6332,0,999,3529,0,1.59e-06,0,4550681,0 ASTRA 2F,1 38778U 12051A   24316.50931615  .00000159  00000-0  00000-0 0  9993,2 38778   0.0350 246.3092 0004590 346.7850  29.6332  1.00272846 35294,2012-051A,38778,42164.435,1436.082,35805.653,35766.946,0
GENERATED VIA SPACETRACK.ORG API,18 SPCS,38778,ASTRA 2F,PAYLOAD,U,12051A,2024-11-11 13:56:37,756320,1.0027288,0.0004595,0.0349,246.178,346.9748,55.4491,0,999,4444,0,1.59e-06,0,4550910,0 ASTRA 2F,1 38778U 12051A   24316.58099255  .00000159  00000-0  00000+0 0  9995,2 38778   0.0349 246.1780 0004595 346.9748  55.4491  1.00272880 44445,2012-051A,38778,42164.425,1436.081,35805.665,35766.915,0
GENERATED VIA SPACETRACK.ORG API,18 SPCS,38778,ASTRA 2F,PAYLOAD,U,12051A,2024-11-12 07:06:02,799072,1.00268366,0.0004664,0.0686,258.0144,329.9319,318.7184,0,999,4445,0,1.59e-06,0,4551597,0 ASTRA 2F,1 38778U 12051A   24317.29586573  .00000159  00000-0  00000+0 0  9998,2 38778   0.0686 258.0144 0004664 329.9319 318.7184  1.00268366 44456,2012-051A,38778,42165.69,1436.146,35807.222,35767.889,0
GENERATED VIA SPACETRACK.ORG API,18 SPCS,38778,ASTRA 2F,PAYLOAD,U,12051A,2024-11-12 07:06:02,799072,1.00268366,0.0004664,0.0686,258.0144,329.9319,318.7184,0,999,3530,0,1.59e-06,0,4551714,0 ASTRA 2F,1 38778U 12051A   24317.29586573  .00000159  00000-0  00000-0 0  9999,2 38778   0.0686 258.0144 0004664 329.9319 318.7184  1.00268366 35300,2012-051A,38778,42165.69,1436.146,35807.222,35767.889,0
GENERATED VIA SPACETRACK.ORG API,18 SPCS,38778,ASTRA 2F,PAYLOAD,U,12051A,2024-11-13 01:58:21,772416,1.00270844,0.0004756,0.0665,257.7267,332.9243,239.8668,0,999,4446,0,1.6e-06,0,4552263,0 ASTRA 2F,1 38778U 12051A   24318.08219644  .00000160  00000-0  00000+0 0  9990,2 38778   0.0665 257.7267 0004756 332.9243 239.8668  1.00270844 44462,2012-051A,38778,42164.996,1436.11,35806.914,35766.807,0
GENERATED VIA SPACETRACK.ORG API,18 SPCS,38778,ASTRA 2F,PAYLOAD,U,12051A,2024-11-13 07:07:12,318240,1.00270961,0.0004756,0.0659,257.7022,333.4807,316.7564,0,999,3531,0,1.6e-06,0,4552726,0 ASTRA 2F,1 38778U 12051A   24318.29667035  .00000160  00000-0  00000-0 0  9995,2 38778   0.0659 257.7022 0004756 333.4807 316.7564  1.00270961 35310,2012-051A,38778,42164.963,1436.109,35806.882,35766.774,0
GENERATED VIA SPACETRACK.ORG API,18 SPCS,38778,ASTRA 2F,PAYLOAD,U,12051A,2024-11-13 22:33:38,394144,1.00271263,0.0004801,0.0641,257.4657,334.5428,188.1723,0,999,3531,0,1.6e-06,0,4553643,0 ASTRA 2F,1 38778U 12051A   24318.94002771  .00000160  00000-0  00000-0 0  9997,2 38778   0.0641 257.4657 0004801 334.5428 188.1723  1.00271263 35318,2012-051A,38778,42164.878,1436.104,35806.987,35766.5,0
GENERATED VIA SPACETRACK.ORG API,18 SPCS,38778,ASTRA 2F,PAYLOAD,U,12051A,2024-11-15 04:24:42,850656,1.00271899,0.0004855,0.0608,256.9682,336.6223,275.5848,0,999,4448,0,1.59e-06,0,4554102,0 ASTRA 2F,1 38778U 12051A   24320.18382929  .00000159  00000-0  00000+0 0  9999,2 38778   0.0608 256.9682 0004855 336.6223 275.5848  1.00271899 44480,2012-051A,38778,42164.7,1436.095,35807.036,35766.094,0
GENERATED VIA SPACETRACK.ORG API,18 SPCS,38778,ASTRA 2F,PAYLOAD,U,12051A,2024-11-15 08:59:42,789984,1.00272037,0.000486,0.0603,256.9156,336.7894,344.4086,0,999,3533,0,1.59e-06,0,4554610,0 ASTRA 2F,1 38778U 12051A   24320.37480081  .00000159  00000-0  00000-0 0  9999,2 38778   0.0603 256.9156 0004860 336.7894 344.4086  1.00272037 35331,2012-051A,38778,42164.661,1436.093,35807.018,35766.034,0
GENERATED VIA SPACETRACK.ORG API,18 SPCS,38778,ASTRA 2F,PAYLOAD,U,12051A,2024-11-16 14:01:20,673984,1.00272773,0.0004912,0.0571,256.3129,338.9492,59.4546,0,999,4449,0,1.57e-06,0,4555832,0 ASTRA 2F,1 38778U 12051A   24321.58426706  .00000157  00000-0  00000+0 0  9994,2 38778   0.0571 256.3129 0004912 338.9492  59.4546  1.00272773 44493,2012-051A,38778,42164.455,1436.083,35807.031,35765.609,0
GENERATED VIA SPACETRACK.ORG API,18 SPCS,38778,ASTRA 2F,PAYLOAD,U,12051A,2024-11-17 14:02:17,337696,1.00273396,0.0004935,0.0545,255.8055,340.6863,59.4525,0,999,4450,0,1.55e-06,0,4556382,0 ASTRA 2F,1 38778U 12051A   24322.58492289  .00000155  00000-0  00000+0 0  9992,2 38778   0.0545 255.8055 0004935 340.6863  59.4525  1.00273396 44504,2012-051A,38778,42164.28,1436.074,35806.953,35765.337,0
GENERATED VIA SPACETRACK.ORG API,18 SPCS,38778,ASTRA 2F,PAYLOAD,U,12051A,2024-11-17 20:57:42,439968,1.00273581,0.0004943,0.0536,255.7255,341.1953,163.1645,0,999,3535,0,1.54e-06,0,4556486,0 ASTRA 2F,1 38778U 12051A   24322.87340787  .00000154  00000-0  00000-0 0  9999,2 38778   0.0536 255.7255 0004943 341.1953 163.1645  1.00273581 35355,2012-051A,38778,42164.228,1436.071,35806.935,35765.252,0
GENERATED VIA SPACETRACK.ORG API,18 SPCS,38778,ASTRA 2F,PAYLOAD,U,12051A,2024-11-18 12:20:12,634368,1.00273991,0.0004939,0.052,255.2656,342.2353,33.8465,0,999,3536,0,1.53e-06,0,4557070,0 ASTRA 2F,1 38778U 12051A   24323.51403512  .00000153  00000-0  00000-0 0  9996,2 38778   0.0520 255.2656 0004939 342.2353  33.8465  1.00273991 35368,2012-051A,38778,42164.114,1436.065,35806.803,35765.154,0
GENERATED VIA SPACETRACK.ORG API,18 SPCS,38778,ASTRA 2F,PAYLOAD,U,12051A,2024-11-18 20:54:51,316992,1.00269514,0.0004866,0.0511,255.1418,338.5851,166.624,0,999,4452,0,1.52e-06,0,4557643,0 ASTRA 2F,1 38778U 12051A   24323.87142728  .00000152  00000-0  00000+0 0  9992,2 38778   0.0511 255.1418 0004866 338.5851 166.6240  1.00269514 44523,2012-051A,38778,42165.369,1436.129,35807.751,35766.716,0
GENERATED VIA SPACETRACK.ORG API,18 SPCS,38778,ASTRA 2F,PAYLOAD,U,12051A,2024-11-19 01:53:42,735840,1.00269224,0.0004875,0.0506,254.9011,339.2789,241.0875,0,999,3537,0,1.52e-06,0,4558021,0 ASTRA 2F,1 38778U 12051A   24324.07896685  .00000152  00000-0  00000-0 0  9994,2 38778   0.0506 254.9011 0004875 339.2789 241.0875  1.00269224 35374,2012-051A,38778,42165.45,1436.134,35807.871,35766.759,0
GENERATED VIA SPACETRACK.ORG API,18 SPCS,38778,ASTRA 2F,PAYLOAD,U,12051A,2024-11-19 12:21:07,418880,1.00269701,0.0004872,0.0494,254.5626,340.2099,37.7739,0,999,3537,0,1.52e-06,0,4558286,0 ASTRA 2F,1 38778U 12051A   24324.51466920  .00000152  00000-0  00000-0 0  9998,2 38778   0.0494 254.5626 0004872 340.2099  37.7739  1.00269701 35370,2012-051A,38778,42165.316,1436.127,35807.724,35766.638,0
GENERATED VIA SPACETRACK.ORG API,18 SPCS,38778,ASTRA 2F,PAYLOAD,U,12051A,2024-11-19 21:54:42,696288,1.00269865,0.0004863,0.0484,254.3204,340.769,181.2437,0,999,4453,0,1.51e-06,0,4558462,0 ASTRA 2F,1 38778U 12051A   24324.91299417  .00000151  00000-0  00000+0 0  9995,2 38778   0.0484 254.3204 0004863 340.7690 181.2437  1.00269865 44530,2012-051A,38778,42165.27,1436.124,35807.64,35766.63,0
GENERATED VIA SPACETRACK.ORG API,18 SPCS,38778,ASTRA 2F,PAYLOAD,U,12051A,2024-11-20 07:13:16,230720,1.00270106,0.0004861,0.0475,254.0546,340.4709,321.8273,0,999,3538,0,1.51e-06,0,4558927,0 ASTRA 2F,1 38778U 12051A   24325.30088230  .00000151  00000-0  00000-0 0  9999,2 38778   0.0475 254.0546 0004861 340.4709 321.8273  1.00270106 35385,2012-051A,38778,42165.203,1436.121,35807.564,35766.571,0
GENERATED VIA SPACETRACK.ORG API,18 SPCS,38778,ASTRA 2F,PAYLOAD,U,12051A,2024-11-20 22:54:46,999296,1.00270492,0.0004833,0.0458,253.3722,341.8041,197.1956,0,999,3538,0,1.51e-06,0,4559180,0 ASTRA 2F,1 38778U 12051A   24325.95471064  .00000151  00000-0  00000-0 0  9991,2 38778   0.0458 253.3722 0004833 341.8041 197.1956  1.00270492 35387,2012-051A,38778,42165.094,1436.115,35807.338,35766.581,0
GENERATED VIA SPACETRACK.ORG API,18 SPCS,38778,ASTRA 2F,PAYLOAD,U,12051A,2024-11-21 00:22:31,208736,1.00270568,0.0004832,0.0456,253.2567,341.9699,219.1396,0,999,4454,0,1.52e-06,0,4559387,0 ASTRA 2F,1 38778U 12051A   24326.01563899  .00000152  00000-0  00000+0 0  9997,2 38778   0.0456 253.2567 0004832 341.9699 219.1396  1.00270568 44545,2012-051A,38778,42165.073,1436.114,35807.312,35766.564,0
GENERATED VIA SPACETRACK.ORG API,18 SPCS,38778,ASTRA 2F,PAYLOAD,U,12051A,2024-11-21 12:22:27,612768,1.00270858,0.0004821,0.0444,252.7594,341.8893,40.1934,0,999,3539,0,1.52e-06,0,4559469,0 ASTRA 2F,1 38778U 12051A   24326.51559737  .00000152  00000-0  00000-0 0  9999,2 38778   0.0444 252.7594 0004821 341.8893  40.1934  1.00270858 35394,2012-051A,38778,42164.992,1436.11,35807.185,35766.529,0
GENERATED VIA SPACETRACK.ORG API,18 SPCS,38778,ASTRA 2F,PAYLOAD,U,12051A,2024-11-21 20:03:42,842592,1.00271036,0.0004797,0.0437,252.5518,343.8343,154.0841,0,999,3539,0,1.53e-06,0,4559852,0 ASTRA 2F,1 38778U 12051A   24326.83591253  .00000153  00000-0  00000-0 0  9994,2 38778   0.0437 252.5518 0004797 343.8343 154.0841  1.00271036 35395,2012-051A,38778,42164.942,1436.108,35807.033,35766.58,0
